[
  {
    "OBJECT_NAME": "GAOFEN-1",
    "OBJECT_ID": "2013-018A",
    "EPOCH": "2025-05-31T20:50:44.501568",
    "MEAN_MOTION": 14.76512097,
    "ECCENTRICITY": 0.0018881,
    "INCLINATION": 97.9501,
    "RA_OF_ASC_NODE": 225.7212,
    "ARG_OF_PERICENTER": 56.8683,
    "MEAN_ANOMALY": 303.4336,
    "EPHEMERIS_TYPE": 0,
    "CLASSIFICATION_TYPE": "U",
    "NORAD_CAT_ID": 39150,
    "ELEMENT_SET_NO": 999,
    "REV_AT_EPOCH": 65201,
    "BSTAR": 0.00011439,
    "MEAN_MOTION_DOT": 7.48e-06,
    "MEAN_MOTION_DDOT": 0
  },
  {
    "OBJECT_NAME": "VNREDSAT 1",
    "OBJECT_ID": "2013-021B",
    "EPOCH": "2025-05-31T19:44:58.258464",
    "MEAN_MOTION": 14.64915062,
    "ECCENTRICITY": 0.0001303,
    "INCLINATION": 97.9497,
    "RA_OF_ASC_NODE": 213.7522,
    "ARG_OF_PERICENTER": 97.3778,
    "MEAN_ANOMALY": 262.7574,
    "EPHEMERIS_TYPE": 0,
    "CLASSIFICATION_TYPE": "U",
    "NORAD_CAT_ID": 39160,
    "ELEMENT_SET_NO": 999,
    "REV_AT_EPOCH": 64447,
    "BSTAR": 0.00013574,
    "MEAN_MOTION_DOT": 6.8e-06,
    "MEAN_MOTION_DDOT": 0
  },
  {
    "OBJECT_NAME": "ARIRANG-5 (KOMPSAT-5)",
    "OBJECT_ID": "2013-042A",
    "EPOCH": "2025-05-31T19:22:03.662112",
    "MEAN_MOTION": 15.04518721,
    "ECCENTRICITY": 0.0002888,
    "INCLINATION": 97.6192,
    "RA_OF_ASC_NODE": 338.8345,
    "ARG_OF_PERICENTER": 31.425,
    "MEAN_ANOMALY": 328.7148,
    "EPHEMERIS_TYPE": 0,
    "CLASSIFICATION_TYPE": "U",
    "NORAD_CAT_ID": 39227,
    "ELEMENT_SET_NO": 999,
    "REV_AT_EPOCH": 64657,
    "BSTAR": 0.00015581,
    "MEAN_MOTION_DOT": 2.122e-05,
    "MEAN_MOTION_DDOT": 0
  },
  {
    "OBJECT_NAME": "SKYSAT-A",
    "OBJECT_ID": "2013-066C",
    "EPOCH": "2025-05-31T09:42:31.385952",
    "MEAN_MOTION": 15.09956844,
    "ECCENTRICITY": 0.0022742,
    "INCLINATION": 97.4345,
    "RA_OF_ASC_NODE": 207.4389,
    "ARG_OF_PERICENTER": 187.0834,
    "MEAN_ANOMALY": 173.0077,
    "EPHEMERIS_TYPE": 0,
    "CLASSIFICATION_TYPE": "U",
    "NORAD_CAT_ID": 39418,
    "ELEMENT_SET_NO": 999,
    "REV_AT_EPOCH": 63081,
    "BSTAR": 0.00017339,
    "MEAN_MOTION_DOT": 2.767e-05,
    "MEAN_MOTION_DDOT": 0
  },
  {
    "OBJECT_NAME": "DUBAISAT-2",
    "OBJECT_ID": "2013-066D",
    "EPOCH": "2025-05-31T20:30:51.485184",
    "MEAN_MOTION": 15.06307879,
    "ECCENTRICITY": 0.0010086,
    "INCLINATION": 97.4333,
    "RA_OF_ASC_NODE": 148.7329,
    "ARG_OF_PERICENTER": 259.366,
    "MEAN_ANOMALY": 100.6432,
    "EPHEMERIS_TYPE": 0,
    "CLASSIFICATION_TYPE": "U",
    "NORAD_CAT_ID": 39419,
    "ELEMENT_SET_NO": 999,
    "REV_AT_EPOCH": 62891,
    "BSTAR": 0.00025744,
    "MEAN_MOTION_DOT": 3.727e-05,
    "MEAN_MOTION_DDOT": 0
  },
  {
    "OBJECT_NAME": "GPM-CORE",
    "OBJECT_ID": "2014-009C",
    "EPOCH": "2025-05-31T13:38:45.032064",
    "MEAN_MOTION": 15.45057292,
    "ECCENTRICITY": 0.0013552,
    "INCLINATION": 64.9753,
    "RA_OF_ASC_NODE": 146.44,
    "ARG_OF_PERICENTER": 267.9082,
    "MEAN_ANOMALY": 92.0507,
    "EPHEMERIS_TYPE": 0,
    "CLASSIFICATION_TYPE": "U",
    "NORAD_CAT_ID": 39574,
    "ELEMENT_SET_NO": 999,
    "REV_AT_EPOCH": 63886,
    "BSTAR": 0.00015504,
    "MEAN_MOTION_DOT": 7.135e-05,
    "MEAN_MOTION_DDOT": 0
  },
  {
    "OBJECT_NAME": "SENTINEL-1A",
    "OBJECT_ID": "2014-016A",
    "EPOCH": "2025-05-31T20:04:09.001056",
    "MEAN_MOTION": 14.5919977,
    "ECCENTRICITY": 0.0001386,
    "INCLINATION": 98.179,
    "RA_OF_ASC_NODE": 159.8973,
    "ARG_OF_PERICENTER": 90.3656,
    "MEAN_ANOMALY": 269.7702,
    "EPHEMERIS_TYPE": 0,
    "CLASSIFICATION_TYPE": "U",
    "NORAD_CAT_ID": 39634,
    "ELEMENT_SET_NO": 999,
    "REV_AT_EPOCH": 59443,
    "BSTAR": 1.7301e-05,
    "MEAN_MOTION_DOT": 3.6e-07,
    "MEAN_MOTION_DDOT": 0
  },
  {
    "OBJECT_NAME": "KAZEOSAT 1",
    "OBJECT_ID": "2014-024A",
    "EPOCH": "2025-05-31T19:32:23.573472",
    "MEAN_MOTION": 14.42048497,
    "ECCENTRICITY": 0.0001263,
    "INCLINATION": 98.3596,
    "RA_OF_ASC_NODE": 227.874,
    "ARG_OF_PERICENTER": 98.8045,
    "MEAN_ANOMALY": 261.3287,
    "EPHEMERIS_TYPE": 0,
    "CLASSIFICATION_TYPE": "U",
    "NORAD_CAT_ID": 39731,
    "ELEMENT_SET_NO": 999,
    "REV_AT_EPOCH": 58364,
    "BSTAR": 7.7871e-05,
    "MEAN_MOTION_DOT": 2.13e-06,
    "MEAN_MOTION_DDOT": 0
  },
  {
    "OBJECT_NAME": "ALOS-2",
    "OBJECT_ID": "2014-029A",
    "EPOCH": "2025-05-31T19:48:13.651200",
    "MEAN_MOTION": 14.79465578,
    "ECCENTRICITY": 0.0001564,
    "INCLINATION": 97.9211,
    "RA_OF_ASC_NODE": 249.4624,
    "ARG_OF_PERICENTER": 99.3101,
    "MEAN_ANOMALY": 260.8288,
    "EPHEMERIS_TYPE": 0,
    "CLASSIFICATION_TYPE": "U",
    "NORAD_CAT_ID": 39766,
    "ELEMENT_SET_NO": 999,
    "REV_AT_EPOCH": 59522,
    "BSTAR": 0.00023212,
    "MEAN_MOTION_DOT": 1.682e-05,
    "MEAN_MOTION_DDOT": 0
  },
  {
    "OBJECT_NAME": "KAZEOSAT 2",
    "OBJECT_ID": "2014-033A",
    "EPOCH": "2025-05-31T21:12:33.828768",
    "MEAN_MOTION": 14.84662441,
    "ECCENTRICITY": 0.0010142,
    "INCLINATION": 97.5748,
    "RA_OF_ASC_NODE": 6.0488,
    "ARG_OF_PERICENTER": 132.6932,
    "MEAN_ANOMALY": 227.5139,
    "EPHEMERIS_TYPE": 0,
    "CLASSIFICATION_TYPE": "U",
    "NORAD_CAT_ID": 40010,
    "ELEMENT_SET_NO": 999,
    "REV_AT_EPOCH": 59237,
    "BSTAR": 7.4092e-05,
    "MEAN_MOTION_DOT": 5.77e-06,
    "MEAN_MOTION_DDOT": 0
  },
  {
    "OBJECT_NAME": "HODOYOSHI-4",
    "OBJECT_ID": "2014-033B",
    "EPOCH": "2025-05-31T19:20:29.628672",
    "MEAN_MOTION": 14.86719534,
    "ECCENTRICITY": 0.0025464,
    "INCLINATION": 97.5533,
    "RA_OF_ASC_NODE": 350.2984,
    "ARG_OF_PERICENTER": 126.7527,
    "MEAN_ANOMALY": 233.6032,
    "EPHEMERIS_TYPE": 0,
    "CLASSIFICATION_TYPE": "U",
    "NORAD_CAT_ID": 40011,
    "ELEMENT_SET_NO": 999,
    "REV_AT_EPOCH": 59212,
    "BSTAR": 0.00016476,
    "MEAN_MOTION_DOT": 1.422e-05,
    "MEAN_MOTION_DDOT": 0
  },
  {
    "OBJECT_NAME": "DEIMOS-2",
    "OBJECT_ID": "2014-033D",
    "EPOCH": "2025-05-31T19:23:43.940544",
    "MEAN_MOTION": 14.92021808,
    "ECCENTRICITY": 0.0002087,
    "INCLINATION": 97.6348,
    "RA_OF_ASC_NODE": 33.8857,
    "ARG_OF_PERICENTER": 107.6483,
    "MEAN_ANOMALY": 252.4965,
    "EPHEMERIS_TYPE": 0,
    "CLASSIFICATION_TYPE": "U",
    "NORAD_CAT_ID": 40013,
    "ELEMENT_SET_NO": 999,
    "REV_AT_EPOCH": 59369,
    "BSTAR": 0.00020865,
    "MEAN_MOTION_DOT": 2.062e-05,
    "MEAN_MOTION_DDOT": 0
  },
  {
    "OBJECT_NAME": "HODOYOSHI-3",
    "OBJECT_ID": "2014-033F",
    "EPOCH": "2025-05-31T11:08:53.990592",
    "MEAN_MOTION": 14.83978678,
    "ECCENTRICITY": 0.003401,
    "INCLINATION": 97.6089,
    "RA_OF_ASC_NODE": 326.0836,
    "ARG_OF_PERICENTER": 168.9124,
    "MEAN_ANOMALY": 191.2849,
    "EPHEMERIS_TYPE": 0,
    "CLASSIFICATION_TYPE": "U",
    "NORAD_CAT_ID": 40015,
    "ELEMENT_SET_NO": 999,
    "REV_AT_EPOCH": 59098,
    "BSTAR": 0.00020229,
    "MEAN_MOTION_DOT": 1.648e-05,
    "MEAN_MOTION_DDOT": 0
  },
  {
    "OBJECT_NAME": "SPOT 7",
    "OBJECT_ID": "2014-034A",
    "EPOCH": "2025-05-31T20:07:42.584448",
    "MEAN_MOTION": 14.60447985,
    "ECCENTRICITY": 0.000133,
    "INCLINATION": 98.1122,
    "RA_OF_ASC_NODE": 218.1448,
    "ARG_OF_PERICENTER": 83.5975,
    "MEAN_ANOMALY": 276.5377,
    "EPHEMERIS_TYPE": 0,
    "CLASSIFICATION_TYPE": "U",
    "NORAD_CAT_ID": 40053,
    "ELEMENT_SET_NO": 999,
    "REV_AT_EPOCH": 58148,
    "BSTAR": 0.00011625,
    "MEAN_MOTION_DOT": 5.18e-06,
    "MEAN_MOTION_DDOT": 0
  }
]