GAOFEN-1                
1 39150U 13018A   25151.86857062  .00000748  00000+0  11439-3 0  9996
2 39150  97.9501 225.7212 0018881  56.8683 303.4336 14.76512097652012
VNREDSAT 1              
1 39160U 13021B   25151.82289651  .00000680  00000+0  13574-3 0  9997
2 39160  97.9497 213.7522 0001303  97.3778 262.7574 14.64915062644472
ARIRANG-5 (KOMPSAT-5)   
1 39227U 13042A   25151.80698683  .00002122  00000+0  15581-3 0  9994
2 39227  97.6192 338.8345 0002888  31.4250 328.7148 15.04518721646579
SKYSAT-A                
1 39418U 13066C   25151.40452993  .00002767  00000+0  17339-3 0  9998
2 39418  97.4345 207.4389 0022742 187.0834 173.0077 15.09956844630814
DUBAISAT-2              
1 39419U 13066D   25151.85476256  .00003727  00000+0  25744-3 0  9992
2 39419  97.4333 148.7329 0010086 259.3660 100.6432 15.06307879628915
GPM-CORE                
1 39574U 14009C   25151.56857676  .00007135  00000+0  15504-3 0  9999
2 39574  64.9753 146.4400 0013552 267.9082  92.0507 15.45057292638867
SENTINEL-1A             
1 39634U 14016A   25151.83621529  .00000036  00000+0  17301-4 0  9991
2 39634  98.1790 159.8973 0001386  90.3656 269.7702 14.59199770594430
KAZEOSAT 1              
1 39731U 14024A   25151.81416173  .00000213  00000+0  77871-4 0  9998
2 39731  98.3596 227.8740 0001263  98.8045 261.3287 14.42048497583649
ALOS-2                  
1 39766U 14029A   25151.82515800  .00001682  00000+0  23212-3 0  9999
2 39766  97.9211 249.4624 0001564  99.3101 260.8288 14.79465578595225
KAZEOSAT 2              
1 40010U 14033A   25151.88372487  .00000577  00000+0  74092-4 0  9991
2 40010  97.5748   6.0488 0010142 132.6932 227.5139 14.84662441592372
HODOYOSHI-4             
1 40011U 14033B   25151.80589848  .00001422  00000+0  16476-3 0  9996
2 40011  97.5533 350.2984 0025464 126.7527 233.6032 14.86719534592128
DEIMOS-2                
1 40013U 14033D   25151.80814746  .00002062  00000+0  20865-3 0  9994
2 40013  97.6348  33.8857 0002087 107.6483 252.4965 14.92021808593697
HODOYOSHI-3             
1 40015U 14033F   25151.46451378  .00001648  00000+0  20229-3 0  9999
2 40015  97.6089 326.0836 0034010 168.9124 191.2849 14.83978678590984
SPOT 7                  
1 40053U 14034A   25151.83868732  .00000518  00000+0  11625-3 0  9994
2 40053  98.1122 218.1448 0001330  83.5975 276.5377 14.60447985581480
